NORAD_CAT_ID,OBJECT_NAME,OBJECT_TYPE,EPOCH,MEAN_MOTION,ECCENTRICITY,INCLINATION,RA_OF_ASC_NODE,ARG_OF_PERICENTER,MEAN_ANOMALY,BSTAR,MEAN_MOTION_DOT,MEAN_MOTION_DDOT,TLE_LINE0,TLE_LINE1,TLE_LINE2,SEMIMAJOR_AXIS,PERIOD,APOGEE,PERIGEE,DECAYED
53894.0,STARLINK-5043,PAYLOAD,2024-08-10 11:08:29,15.08876104,0.0001853,53.2159,30.93,84.5543,275.5661,0.001017,0.00015951,0.0,0 STARLINK-5043,1 53894U 22119J   24223.46423015  .00015951  00000-0  10170-2 0  9994,2 53894  53.2159  30.9300 0001853  84.5543 275.5661 15.08876104104273,6917.77,95.435,540.917,538.353,0.0
53894.0,STARLINK-5043,PAYLOAD,2024-08-10 17:30:02,15.08824697,0.0001264,53.2161,29.7378,65.7812,294.3312,-0.00087423,-0.00014168,0.0,0 STARLINK-5043,1 53894U 22119J   24223.72919619 -.00014168  00000-0 -87423-3 0  9990,2 53894  53.2161  29.7378 0001264  65.7812 294.3312 15.08824697104310,6917.927,95.439,540.667,538.918,0.0
53894.0,STARLINK-5043,PAYLOAD,2024-08-11 04:37:45,15.08819342,0.0001172,53.2165,27.6575,75.7591,284.3531,0.0020414,0.00032332,0.0,0 STARLINK-5043,1 53894U 22119J   24224.19288944  .00032332  00000-0  20414-2 0  9999,2 53894  53.2165  27.6575 0001172  75.7591 284.3531 15.08819342104383,6917.944,95.439,540.619,538.998,0.0
53894.0,STARLINK-5043,PAYLOAD,2024-08-11 17:20:50,15.08856041,0.0001339,53.2169,25.2789,80.378,279.7363,0.0023662,0.00037588,0.0,0 STARLINK-5043,1 53894U 22119J   24224.72281147  .00037588  00000-0  23662-2 0  9992,2 53894  53.2169  25.2789 0001339  80.3780 279.7363 15.08856041104888,6917.831,95.437,540.623,538.77,0.0
53894.0,STARLINK-5043,PAYLOAD,2024-08-12 10:50:05,15.08854811,6.96e-05,53.2186,22.0107,356.7665,3.3322,0.001047,0.00016421,0.0,0 STARLINK-5043,1 53894U 22119J   24225.45145039  .00016421  00000-0  10470-2 0  9998,2 53894  53.2186  22.0107 0000696 356.7665   3.3322 15.08854811104578,6917.835,95.437,540.182,539.219,0.0
53894.0,STARLINK-5043,PAYLOAD,2024-08-12 17:11:37,15.08889779,7.22e-05,53.2183,20.8163,298.982,61.11,0.0021585,0.00034279,0.0,0 STARLINK-5043,1 53894U 22119J   24225.71640165  .00034279  00000-0  21585-2 0  9997,2 53894  53.2183  20.8163 0000722 298.9820  61.1100 15.08889779104615,6917.728,95.434,540.093,539.094,0.0
53894.0,STARLINK-5043,PAYLOAD,2024-08-13 10:40:51,15.0885371,4.89e-05,53.2139,17.5442,17.0012,343.0996,0.00063713,9.871e-05,0.0,0 STARLINK-5043,1 53894U 22119J   24226.44503893  .00009871  00000-0  63713-3 0  9994,2 53894  53.2139  17.5442 0000489  17.0012 343.0996 15.08853710104725,6917.838,95.437,540.042,539.365,0.0
53894.0,STARLINK-5043,PAYLOAD,2024-08-13 17:02:24,15.08830728,7.74e-05,53.2174,16.3594,49.843,310.263,-0.00053544,-8.797e-05,0.0,0 STARLINK-5043,1 53894U 22119J   24226.71000064 -.00008797  00000-0 -53544-3 0  9995,2 53894  53.2174  16.3594 0000774  49.8430 310.2630 15.08830728104762,6917.909,95.438,540.309,539.238,0.0
53894.0,STARLINK-5043,PAYLOAD,2024-08-14 13:42:26,15.08827148,0.0001078,53.2179,12.4944,67.4899,292.6207,0.00072413,0.00011251,0.0,0 STARLINK-5043,1 53894U 22119J   24227.57113505  .00011251  00000-0  72413-3 0  9998,2 53894  53.2179  12.4944 0001078  67.4899 292.6207 15.08827148105313,6917.92,95.438,540.53,539.039,0.0
53894.0,STARLINK-5043,PAYLOAD,2024-08-14 16:53:12,15.08832371,0.000102,53.2172,11.9002,67.9865,292.1236,0.00086519,0.00013505,0.0,0 STARLINK-5043,1 53894U 22119J   24227.70361514  .00013505  00000-0  86519-3 0  9994,2 53894  53.2172  11.9002 0001020  67.9865 292.1236 15.08832371104916,6917.904,95.438,540.474,539.063,0.0
53894.0,STARLINK-5043,PAYLOAD,2024-08-16 02:16:18,15.08843224,9.75e-05,53.2165,5.6565,84.6459,275.4644,0.00028436,4.241e-05,0.0,0 STARLINK-5043,1 53894U 22119J   24229.09465489  .00004241  00000-0  28436-3 0  9995,2 53894  53.2165   5.6565 0000975  84.6459 275.4644 15.08843224105125,6917.871,95.437,540.41,539.061,0.0
53894.0,STARLINK-5043,PAYLOAD,2024-08-17 08:28:38,15.08837216,0.0001134,53.2181,0.0074,83.4799,276.6322,0.00014941,2.091e-05,0.0,0 STARLINK-5043,1 53894U 22119J   24230.35322019  .00002091  00000-0  14941-3 0  9994,2 53894  53.2181   0.0074 0001134  83.4799 276.6322 15.08837216105310,6917.889,95.438,540.538,538.969,0.0
53894.0,STARLINK-5043,PAYLOAD,2024-08-18 13:05:34,15.08859303,9.44e-05,53.2185,354.6566,97.1106,262.9994,0.00043567,6.656e-05,0.0,0 STARLINK-5043,1 53894U 22119J   24231.54553762  .00006656  00000-0  43567-3 0  9994,2 53894  53.2185 354.6566 0000944  97.1106 262.9994 15.08859303105493,6917.821,95.436,540.339,539.033,0.0
53894.0,STARLINK-5043,PAYLOAD,2024-08-18 14:40:57,15.08858605,0.00016,53.2184,354.3584,84.1055,276.012,0.00043011,6.567e-05,0.0,0 STARLINK-5043,1 53894U 22119J   24231.61177272  .00006567  00000-0  43011-3 0  9995,2 53894  53.2184 354.3584 0001600  84.1055 276.0120 15.08858605105927,6917.824,95.436,540.795,538.582,0.0
53894.0,STARLINK-5043,PAYLOAD,2024-08-19 09:45:34,15.0884239,9.56e-05,53.217,350.7853,98.2982,261.8118,3.6529e-05,2.94e-06,0.0,0 STARLINK-5043,1 53894U 22119J   24232.40665459  .00000294  00000-0  36529-4 0  9990,2 53894  53.2170 350.7853 0000956  98.2982 261.8118 15.08842390105629,6917.873,95.437,540.399,539.077,0.0
53894.0,STARLINK-5043,PAYLOAD,2024-08-20 11:11:44,15.08848442,0.0001172,53.2182,346.0289,102.8118,257.3006,-2.0521e-05,-6.14e-06,0.0,0 STARLINK-5043,1 53894U 22119J   24233.46649257 -.00000614  00000-0 -20521-4 0  9998,2 53894  53.2182 346.0289 0001172 102.8118 257.3006 15.08848442105784,6917.855,95.437,540.53,538.909,0.0
53894.0,STARLINK-5043,PAYLOAD,2024-08-20 12:47:07,15.08850656,0.0001385,53.2183,345.7308,110.1055,250.0086,3.2631e-06,-2.36e-06,0.0,0 STARLINK-5043,1 53894U 22119J   24233.53273088 -.00000236  00000-0  32631-5 0  9996,2 53894  53.2183 345.7308 0001385 110.1055 250.0086 15.08850656106218,6917.848,95.437,540.671,538.755,0.0
53894.0,STARLINK-5043,PAYLOAD,2024-08-21 12:37:56,15.08829705,0.0001383,53.2177,341.2696,101.622,258.4927,7.2296e-05,8.63e-06,0.0,0 STARLINK-5043,1 53894U 22119J   24234.52634600  .00000863  00000-0  72296-4 0  9992,2 53894  53.2177 341.2696 0001383 101.6220 258.4927 15.08829705105945,6917.912,95.438,540.734,538.82,0.0
